MEAN_MOTION;ECCENTRICITY;INCLINATION;RA_OF_ASC_NODE;ARG_OF_PERICENTER;MEAN_ANOMALY;BSTAR;MEAN_MOTION_DOT;MEAN_MOTION_DDOT;TYPE
12.62261845;4.78E-5;51.989;343.6188;98.6332;337.3419;5.1784E-6;-1.03E-6;0;Globalstar
12.62261852;4.81E-5;51.989;343.0962;98.3622;37.8238;2.1856E-5;-1.0E-6;0;Globalstar
12.62261867;4.92E-5;51.9888;340.4821;98.4911;340.4384;3.2438E-5;-9.8E-7;0;Globalstar
12.62261891;5.01E-5;51.9886;337.5905;98.1608;337.6106;6.0982E-5;-9.3E-7;0;Globalstar
12.6226189;5.01E-5;51.9886;337.0895;97.8163;5.9704;7.4298E-5;-9.0E-7;0;Globalstar
12.62261911;5.08E-5;51.9884;334.4358;97.9746;7.6219;8.7975E-5;-8.8E-7;0;Globalstar
12.62261917;5.11E-5;51.9884;333.6772;97.6032;60.555;0.00010236;-8.5E-7;0;Globalstar
12.62261935;5.14E-5;51.9883;332.0775;97.574;288.8316;0.00011612;-8.3E-7;0;Globalstar
12.62261861;5.02E-5;51.9885;328.9361;97.7288;298.3041;1.8726E-5;-1.0E-6;0;Globalstar
12.62261994;5.2E-5;51.9879;325.5333;93.4145;342.9983;0.00013453;-8.0E-7;0;Globalstar
12.6226199;5.23E-5;51.9878;322.3964;93.3975;346.2207;9.9369E-5;-8.6E-7;0;Globalstar
12.62262006;5.28E-5;51.9876;319.5049;93.1748;343.206;7.6845E-5;-9.0E-7;0;Globalstar
12.62262017;5.31E-5;51.9875;319.0036;93.0564;11.7421;8.6546E-5;-8.8E-7;0;Globalstar
12.62262021;5.33E-5;51.9874;316.368;93.1934;346.3895;4.7032E-5;-9.5E-7;0;Globalstar
12.62261992;5.24E-5;51.9876;313.4759;94.3241;342.3933;5.6845E-5;-9.4E-7;0;Globalstar
12.62262013;5.33E-5;51.9876;312.9746;94.8275;10.3246;6.6487E-5;-9.2E-7;0;Globalstar
12.62262021;5.39E-5;51.9874;310.3389;95.3501;344.5471;6.098E-5;-9.3E-7;0;Globalstar
12.62262013;5.4E-5;51.9874;310.0816;95.3881;8.6257;5.651E-5;-9.4E-7;0;Globalstar
12.62262015;5.43E-5;51.9874;309.5581;95.5116;70.1439;5.5912E-5;-9.4E-7;0;Globalstar
12.62262047;5.48E-5;51.9872;306.9458;95.9789;9.5352;6.2372E-5;-9.3E-7;0;Globalstar
12.62262062;5.5E-5;51.9872;306.6748;96.3198;53.744;7.1604E-5;-9.1E-7;0;Globalstar
12.62262046;5.56E-5;51.9871;304.053;96.2983;7.8169;3.8837E-5;-9.7E-7;0;Globalstar
12.62262061;5.58E-5;51.9871;303.5328;96.3502;64.3583;4.4706E-5;-9.6E-7;0;Globalstar
12.62262088;5.62E-5;51.987;300.9168;97.1961;8.8752;4.8546E-5;-9.5E-7;0;Globalstar
12.62262139;5.6E-5;51.9869;297.7542;99.8864;47.2578;7.9005E-5;-9.0E-7;0;Globalstar
12.62262116;5.75E-5;51.9862;295.9042;101.2799;287.8191;0.00011778;-8.3E-7;0;Globalstar
12.62262124;5.75E-5;51.9862;294.8877;101.8546;4.7819;0.00012159;-8.2E-7;0;Globalstar
12.62262154;5.69E-5;51.9861;291.997;102.7647;359.0461;0.00011396;-8.3E-7;0;Globalstar
12.62262118;5.69E-5;51.986;289.6257;103.9375;297.7459;5.8858E-5;-9.3E-7;0;Globalstar
12.62262105;5.5E-5;51.9865;288.8355;104.6043;36.7253;2.459E-5;-9.9E-7;0;Globalstar
12.62262128;5.66E-5;51.9859;286.9881;104.5337;274.7045;3.6004E-5;-9.7E-7;0;Globalstar
12.6226211;5.47E-5;51.9863;285.4454;105.4081;56.6672;2.3097E-5;-1.0E-6;0;Globalstar
12.62262155;5.64E-5;51.9858;282.8291;106.574;1.2597;-2.3398E-6;-1.04E-6;0;Globalstar
12.62262148;5.61E-5;51.9857;280.9589;107.5172;272.1877;-3.1249E-5;-1.09E-6;0;Globalstar
12.62262143;5.61E-5;51.9857;279.9399;107.7739;353.135;-4.0723E-5;-1.11E-6;0;Globalstar
12.62262135;5.56E-5;51.9856;277.8167;108.9827;281.3654;-5.7065E-5;-1.14E-6;0;Globalstar
12.62262139;5.57E-5;51.9856;277.2937;109.9447;341.0561;-5.6076E-5;-1.14E-6;0;Globalstar
12.6226213;5.48E-5;51.9855;273.911;109.9802;350.8054;-4.8982E-5;-1.13E-6;0;Globalstar
12.62262133;5.46E-5;51.9854;271.2733;114.4994;323.7823;-3.7835E-5;-1.11E-6;0;Globalstar
12.62262134;5.38E-5;51.9854;268.6465;116.5938;282.9785;-1.1588E-5;-1.06E-6;0;Globalstar
12.62262164;5.38E-5;51.9854;267.882;117.1017;343.6868;2.5105E-5;-9.9E-7;0;Globalstar
12.6226216;5.29E-5;51.9854;265.7582;117.6307;273.6013;4.1046E-5;-9.6E-7;0;Globalstar
12.62262169;5.18E-5;51.9854;262.8708;119.1039;262.254;6.8958E-5;-9.1E-7;0;Globalstar
12.62262204;5.16E-5;51.9855;261.8528;118.9038;342.2519;9.3981E-5;-8.7E-7;0;Globalstar
12.62262206;5.08E-5;51.9855;259.7264;120.1339;275.2675;8.7858E-5;-8.8E-7;0;Globalstar
12.62262207;5.09E-5;51.9855;259.2154;120.5641;317.6863;8.2914E-5;-8.9E-7;0;Globalstar
12.62262229;4.93E-5;51.9856;256.3245;121.09;312.6012;7.1234E-5;-9.1E-7;0;Globalstar
12.62262249;5.0E-5;51.9857;255.8237;120.7951;340.591;8.5933E-5;-8.8E-7;0;Globalstar
12.6226227;4.9E-5;51.9859;253.1865;121.9652;316.4134;4.5664E-5;-9.6E-7;0;Globalstar
12.622623;4.8E-5;51.986;249.7951;123.0844;338.3487;1.2412E-5;-1.02E-6;0;Globalstar
12.62262331;4.6E-5;51.9861;246.3768;123.3159;41.3292;-1.3681E-5;-1.06E-6;0;Globalstar
12.62262312;4.48E-5;51.9861;243.2393;120.8808;47.9724;-3.8515E-5;-1.11E-6;0;Globalstar
12.62262314;4.39E-5;51.9861;241.1293;121.9496;316.7829;-4.7171E-5;-1.12E-6;0;Globalstar
12.6226227;4.27E-5;51.9861;238.2385;123.2359;311.2044;-5.7658E-5;-1.14E-6;0;Globalstar
12.62262244;4.2E-5;51.9861;237.7377;123.6968;338.3888;-5.829E-5;-1.14E-6;0;Globalstar
12.62262263;3.98E-5;51.9861;235.1007;126.218;312.6325;-2.2122E-5;-1.08E-6;0;Globalstar
12.6226228;3.94E-5;51.9861;234.3224;126.2746;34.4796;1.1982E-5;-1.02E-6;0;Globalstar
12.62262279;3.78E-5;51.9861;231.9631;127.4383;315.5212;3.7195E-5;-9.7E-7;0;Globalstar
12.62262288;3.7E-5;51.9861;231.1836;127.017;39.6365;5.8854E-5;-9.3E-7;0;Globalstar
12.62262311;3.59E-5;51.9862;229.0721;128.9404;310.0024;8.4824E-5;-8.9E-7;0;Globalstar
12.62262329;3.42E-5;51.9863;227.1546;129.4197;292.2332;0.00011369;-8.3E-7;0;Globalstar
12.62262317;3.36E-5;51.9863;225.6799;130.209;332.9726;0.0001101;-8.4E-7;0;Globalstar
12.62262317;3.23E-5;51.9863;223.8112;131.579;241.5778;0.00010111;-8.6E-7;0;Globalstar
12.62262311;3.19E-5;51.9864;223.0435;132.1587;307.0297;7.7974E-5;-9.0E-7;0;Globalstar
12.62262361;3.07E-5;51.9864;220.1526;131.4803;303.7543;7.3199E-5;-9.1E-7;0;Globalstar
12.62266359;3.12E-5;51.9864;217.0152;132.4828;306.6978;2.6697E-5;-9.9E-7;0;Globalstar
12.62266693;2.84E-5;51.9863;213.8588;132.1301;339.4967;-1.5657E-5;-1.07E-6;0;Globalstar
12.62266684;2.78E-5;51.9863;213.6232;131.6285;331.7078;-1.2403E-5;-1.06E-6;0;Globalstar
12.62266704;2.61E-5;51.9862;210.987;132.2866;306.803;-5.0569E-5;-1.13E-6;0;Globalstar
12.62266714;2.42E-5;51.9861;208.6116;132.9139;252.5397;-3.2117E-5;-1.1E-6;0;Globalstar
12.62266742;2.36E-5;51.986;207.5948;132.8781;330.6061;4.7343E-6;-1.03E-6;0;Globalstar
12.62266748;2.16E-5;51.9859;204.6889;132.9339;348.9502;1.1235E-5;-1.02E-6;0;Globalstar
12.62266723;1.9E-5;51.9858;201.5663;132.6572;331.0184;1.9809E-5;-1.0E-6;0;Globalstar
12.62266751;1.66E-5;51.9857;198.9297;131.9024;307.9341;6.3345E-5;-9.2E-7;0;Globalstar
12.62266768;1.45E-5;51.9856;196.5542;130.3304;256.0339;0.00010763;-8.4E-7;0;Globalstar
12.6226675;1.37E-5;51.9856;195.5377;129.1664;334.7422;0.00010565;-8.5E-7;0;Globalstar
12.62266777;1.2E-5;51.9855;193.4129;127.8201;268.1917;0.00013037;-8.0E-7;0;Globalstar
12.62266815;1.03E-5;51.986;192.3781;127.9922;12.5321;3.6423E-5;-9.7E-7;0;Globalstar
12.62266773;1.11E-5;51.9854;192.121;125.7586;38.9245;0.00013845;-7.9E-7;0;Globalstar
12.62266794;8.3E-6;51.9859;189.5086;122.474;341.9317;1.7836E-5;-1.01E-6;0;Globalstar
12.62266797;7.2E-6;51.9858;188.3412;118.0041;289.1809;2.3002E-5;-1.0E-6;0;Globalstar
12.62266832;6.3E-6;51.9852;185.2042;106.4527;304.3236;0.0001153;-8.3E-7;0;Globalstar
12.62266841;5.8E-6;51.9852;184.2445;100.57;302.9146;9.9584E-5;-8.6E-7;0;Globalstar
12.62266821;4.5E-6;51.9856;182.3127;75.9292;331.1003;3.6633E-5;-9.7E-7;0;Globalstar
12.62266824;4.4E-6;51.9855;180.3205;58.7158;82.3945;4.0758E-5;-9.6E-7;0;Globalstar
12.62266833;5.5E-6;51.9854;177.4508;34.1471;70.9646;4.7688E-5;-9.5E-7;0;Globalstar
12.62266867;6.7E-6;51.9853;175.3087;23.5159;39.499;5.9596E-5;-9.3E-7;0;Globalstar
12.6226688;8.6E-6;51.9846;173.1467;15.2336;35.9419;-2.5189E-5;-1.08E-6;0;Globalstar
12.62266867;9.7E-6;51.9852;171.4219;14.6473;90.8574;4.1444E-5;-9.6E-7;0;Globalstar
12.62266876;1.09E-5;51.9851;170.0058;11.0669;48.5127;3.7714E-5;-9.7E-7;0;Globalstar
12.62266888;1.21E-5;51.9851;168.2628;11.2882;130.4515;4.1674E-5;-9.6E-7;0;Globalstar
12.62266852;1.34E-5;51.9843;167.1179;11.2066;40.1888;-1.4936E-5;-1.06E-6;0;Globalstar
12.62266868;1.52E-5;51.9842;165.1223;9.7794;140.6565;3.3839E-5;-9.8E-7;0;Globalstar
12.62266867;1.63E-5;51.9842;163.9751;8.0503;54.9912;3.8656E-5;-9.7E-7;0;Globalstar
12.62266857;1.73E-5;51.9842;162.2341;7.98;134.0525;5.9581E-5;-9.3E-7;0;Globalstar
12.62266853;1.96E-5;51.9841;159.8661;7.2626;69.8139;6.8044E-5;-9.2E-7;0;Globalstar
12.6226688;2.26E-5;51.9841;156.4733;7.7461;94.0529;9.953E-5;-8.6E-7;0;Globalstar
12.62266927;2.54E-5;51.9841;153.0641;9.8785;141.3774;0.00010746;-8.5E-7;0;Globalstar
12.62266938;2.64E-5;51.9842;152.1681;9.6953;39.1127;9.2279E-5;-8.7E-7;0;Globalstar
12.62266899;2.69E-5;51.9848;150.6824;10.0481;96.7853;-1.1298E-5;-1.06E-6;0;Globalstar
12.62266907;2.87E-5;51.9842;148.074;11.5252;29.1049;2.4643E-7;-1.04E-6;0;Globalstar
12.62266887;2.97E-5;51.9848;147.035;11.6558;140.0441;-1.7427E-5;-1.07E-6;0;Globalstar
12.62266977;3.18E-5;51.9842;143.8926;13.1611;149.4331;-2.0173E-5;-1.07E-6;0;Globalstar
12.62266962;3.49E-5;51.9843;139.4061;14.1302;5.9968;-8.5494E-5;-1.19E-6;0;Globalstar
12.62266948;3.46E-5;51.9843;138.6269;14.7259;88.5963;-0.00010044;-1.22E-6;0;Globalstar
12.62266967;3.64E-5;51.9843;137.8633;15.4759;147.7591;-7.3509E-5;-1.17E-6;0;Globalstar
12.62266919;4.1E-5;51.9843;134.9736;18.2233;138.7389;-7.9697E-5;-1.18E-6;0;Globalstar
12.62266903;4.22E-5;51.9844;134.0818;18.6949;29.5819;-9.3004E-5;-1.2E-6;0;Globalstar
12.62266898;4.37E-5;51.9844;131.6115;19.8071;116.2373;-6.5639E-5;-1.16E-6;0;Globalstar
12.6226695;4.63E-5;51.9847;127.5814;21.5392;10.4578;2.2073E-5;-1.0E-6;0;Globalstar
12.62266927;4.67E-5;51.9847;127.3476;22.045;359.075;7.2656E-6;-1.02E-6;0;Globalstar
12.62266962;4.9E-5;51.9849;124.2056;23.3577;8.228;5.7045E-5;-9.4E-7;0;Globalstar
12.6226697;4.93E-5;51.985;123.4243;23.7785;94.1655;6.2699E-5;-9.3E-7;0;Globalstar
12.62266979;5.11E-5;51.9851;121.3186;24.3647;357.225;6.9417E-5;-9.1E-7;0;Globalstar
12.62266976;5.25E-5;51.9852;119.7757;25.7295;139.091;5.571E-5;-9.4E-7;0;Globalstar
12.62266955;5.4E-5;51.9853;118.1649;26.7097;22.8511;2.8793E-5;-9.9E-7;0;Globalstar
